EUTELSAT KONNECT        
1 45027U 20005B   25203.55554851  .00000042  00000+0  00000+0 0  9999
2 45027   0.0572  90.6462 0000925 125.1428 291.9464  1.00267834 21021
EUTELSAT QUANTUM        
1 49056U 21069B   25203.56352187  .00000119  00000+0  00000+0 0  9990
2 49056   0.0562 270.9341 0001594 234.4605  45.7260  1.00272540 14626
EUTELSAT KONNECT VHTS   
1 53765U 22110A   25204.17267074  .00000008  00000+0  00000+0 0  9995
2 53765   0.0535  94.1457 0002288  39.3062 232.5594  1.00271437 10482
EUTELSAT HOTBIRD 13F    
1 54048U 22134A   25204.12725354  .00000078  00000+0  00000+0 0  9998
2 54048   0.0704 279.5692 0001935  76.2926   4.0616  1.00271480 10139
EUTELSAT HOTBIRD 13G    
1 54225U 22146A   25203.75961508  .00000079  00000+0  00000+0 0  9990
2 54225   0.0589 241.9655 0002177 303.8330  41.3707  1.00271047  9914
EUTELSAT 10B            
1 54259U 22157A   25204.16711285  .00000059  00000+0  00000+0 0  9998
2 54259   0.0487  92.8210 0001551  53.4348 225.0018  1.00271094  9750
EUTELSAT 36D            
1 59346U 24059A   25203.56118186  .00000149  00000+0  00000+0 0  9997
2 59346   0.0278  62.4964 0000478 136.7773 339.1853  1.00271677  4849
